[{"OBJECT_NAME":"STARLINK-2166","OBJECT_ID":"2021-041F","EPOCH":"2026-03-09T12:57:50.425344","MEAN_MOTION":15.30192658,"ECCENTRICITY":0.00013094,"INCLINATION":53.1605,"RA_OF_ASC_NODE":127.4061,"ARG_OF_PERICENTER":94.8263,"MEAN_ANOMALY":265.2887,"EPHEMERIS_TYPE":0,"CLASSIFICATION_TYPE":"U","NORAD_CAT_ID":48558,"ELEMENT_SET_NO":999,"REV_AT_EPOCH":26439,"BSTAR":8.4270474e-5,"MEAN_MOTION_DOT":2.137e-5,"MEAN_MOTION_DDOT":0},{"OBJECT_NAME":"THORAD AGENA D DEB","OBJECT_ID":"1969-082CP","EPOCH":"2026-03-09T22:51:31.947840","MEAN_MOTION":15.31252047,"ECCENTRICITY":0.00108961,"INCLINATION":69.8927,"RA_OF_ASC_NODE":265.8646,"ARG_OF_PERICENTER":335.0972,"MEAN_ANOMALY":24.9676,"EPHEMERIS_TYPE":0,"CLASSIFICATION_TYPE":"U","NORAD_CAT_ID":4133,"ELEMENT_SET_NO":999,"REV_AT_EPOCH":97550,"BSTAR":0.0018489552,"MEAN_MOTION_DOT":0.00056347,"MEAN_MOTION_DDOT":0}]
